STARLINK-34450          
1 64447U 25130K   26068.64917931  .00039687  00000+0  13433-2 0  9996
2 64447  53.1599  88.9546 0001114  92.4011 267.7118 15.30239893 40697
KUIPER-00222            
1 67782U 26030U   26068.67636257  .00055223  00000+0  17317-2 0  9992
2 67782  51.8817 219.7147 0012800  40.1845 320.0084 15.32445377  5087
